{"spkid": "54017111", "covariance": {"epoch": "2459695.5", "labels": ["e", "q", "tp", "node", "peri", "i"], "elements": [{"title": "eccentricity", "value": ".6741337612541809", "units": null, "name": "e", "sigma": 8.50748612315166e-08, "label": "e"}, {"label": "q", "sigma": 2.32185299065594e-07, "name": "q", "value": ".8021948557703125", "title": "perihelion distance", "units": "au"}, {"label": "tp", "units": "TDB", "value": "2460320.614457241918", "title": "time of perihelion passage", "sigma": 2.01063241032258e-05, "name": "tp"}, {"units": "deg", "title": "longitude of the ascending node", "value": "260.4791031645223", "name": "om", "sigma": 0.000122618535755957, "label": "node"}, {"label": "peri", "sigma": 0.000130772903330959, "name": "w", "units": "deg", "title": "argument of perihelion", "value": "241.382382826377"}, {"label": "i", "title": "inclination", "value": "5.196874120891199", "units": "deg", "sigma": 1.94749922263023e-05, "name": "i"}], "data": [["7.237732013561807E-15", "-1.974768002039681E-14", "9.210258940976678E-14", "-2.317931602717553E-12", "4.066792273949863E-12", "1.793107818116293E-13"], ["-1.974768002039681E-14", "5.391001310217952E-14", "-3.066724457037458E-13", "6.334282695790218E-12", "-1.117749129254167E-11", "-4.899087220837212E-13"], ["9.210258940976678E-14", "-3.066724457037458E-13", "4.042642689439606E-10", "-2.325567529503418E-10", "5.99379319551831E-10", "3.390869625336492E-11"], ["-2.317931602717553E-12", "6.334282695790218E-12", "-2.325567529503418E-10", "1.503530531093492E-8", "-1.569084188666604E-8", "-2.247634517856927E-9"], ["4.066792273949863E-12", "-1.117749129254167E-11", "5.99379319551831E-10", "-1.569084188666604E-8", "1.710155224560834E-8", "2.305471930869964E-9"], ["1.793107818116293E-13", "-4.899087220837212E-13", "3.390869625336492E-11", "-2.247634517856927E-9", "2.305471930869964E-9", "3.792753222145351E-10"]]}, "elements": [{"value": ".6722782248549362", "title": "eccentricity", "units": null, "sigma": "8.3638E-8", "name": "e", "label": "e"}, {"sigma": "7.1991E-8", "name": "a", "units": "au", "title": "semi-major axis", "value": "2.463430290917532", "label": "a"}, {"label": "q", "units": "au", "title": "perihelion distance", "value": ".8073197478856146", "sigma": "2.2895E-7", "name": "q"}, {"label": "i", "units": "deg", "title": "inclination; angle with respect to x-y ecliptic plane", "value": "5.188850331363151", "name": "i", "sigma": "1.955E-5"}, {"label": "node", "sigma": ".00012223", "name": "om", "value": "259.8998663075425", "title": "longitude of the ascending node", "units": "deg"}, {"name": "w", "sigma": ".00013065", "units": "deg", "value": "241.8725740794617", "title": "argument of perihelion", "label": "peri"}, {"label": "M", "units": "deg", "title": "mean anomaly", "value": "223.9745320663989", "name": "ma", "sigma": "1.0099E-5"}, {"label": "tp", "name": "tp", "sigma": "6.0778E-5", "title": "time of perihelion passage", "value": "2461734.113207919839", "units": "TDB"}, {"label": "period", "name": "per", "sigma": "6.1906E-5", "value": "1412.241088153531", "title": "sidereal orbital period", "units": "d"}, {"name": "n", "sigma": "1.1174E-8", "units": "deg/d", "value": ".2549139824778011", "title": "mean motion", "label": "n"}, {"label": "Q", "value": "4.119540833949449", "title": "aphelion distance", "units": "au", "name": "ad", "sigma": "1.2039E-7"}], "epoch": "2461200.5"}